ATLAS CENTAUR R/B       
1 06155U 72065B   26078.76084246  .00001112  00000+0  15474-3 0  9995
2 06155  35.0006 246.7313 0032869  94.8345 265.6110 14.77714212842753
SL-8 R/B                
1 08459U 75112B   26078.93695344  .00000209  00000+0  77365-4 0  9990
2 08459  74.0637   0.0633 0014443  89.0084 271.2725 14.38209521633342
SL-3 R/B                
1 10114U 77057B   26078.94790612  .00011839  00000+0  24631-3 0  9994
2 10114  97.5781 251.3235 0006277 241.2678 118.7940 15.45774642669915
SEASAT 1                
1 10967U 78064A   26078.94108963  .00000190  00000+0  91568-4 0  9993
2 10967 108.0088 147.0104 0002497 281.2016  78.8849 14.46168274507996
SL-14 R/B               
1 11267U 79011B   26078.43971764  .00000558  00000+0  52499-4 0  9999
2 11267  82.5203  87.3160 0016795  30.0935 330.1246 14.91920048530232
SL-8 R/B                
1 11574U 79089B   26078.38644275  .00000202  00000+0  69165-4 0  9997
2 11574  74.0671  73.0917 0017002 244.6999 115.2396 14.42356636437501
SL-14 R/B               
1 11672U 80005B   26078.59338901  .00000469  00000+0  44787-4 0  9993
2 11672  82.5126 297.8408 0016920 127.0684 233.2086 14.90940983477961
SL-8 R/B                
1 12139U 81003B   26078.53607464  .00015640  00000+0  39653-3 0  9990
2 12139  82.9362 280.9175 0261436 144.3198 217.5830 15.11374765316165
SL-3 R/B                
1 12465U 81046B   26078.90667770  .00009645  00000+0  22243-3 0  9991
2 12465  81.2279 277.4718 0018750 346.6065  13.4677 15.42234149440007
SL-3 R/B                
1 12904U 81103B   26078.90050332  .00004719  00000+0  20832-3 0  9992
2 12904  81.1604 201.4540 0012438 249.8529 110.1365 15.21492890974784
SL-3 R/B                
1 13068U 82013B   26078.90439854  .00003224  00000+0  13864-3 0  9992
2 13068  81.1751 148.7991 0023193 143.5568 216.7248 15.22108599405902
SL-3 R/B                
1 13154U 82039B   26078.86092893  .00002165  00000+0  13008-3 0  9992
2 13154  81.1580 204.2346 0029213 291.0906  68.7196 15.10135709383175
