CCSDS_OMM_VERS = 2.0
CREATION_DATE  = 
ORIGINATOR     = 

OBJECT_NAME    = ATLAS CENTAUR R/B
OBJECT_ID      = 1972-065B
CENTER_NAME    = EARTH
REF_FRAME      = TEME
TIME_SYSTEM    = UTC
MEAN_ELEMENT_THEORY = SGP/SGP4

EPOCH          = 2026-03-19T18:15:36.788544
MEAN_MOTION    = 14.77714212
ECCENTRICITY   = .0032869
INCLINATION    = 35.0006
RA_OF_ASC_NODE = 246.7313
ARG_OF_PERICENTER = 94.8345
MEAN_ANOMALY   = 265.6110

EPHEMERIS_TYPE = 0
CLASSIFICATION_TYPE = U
NORAD_CAT_ID   = 6155
ELEMENT_SET_NO = 999
REV_AT_EPOCH   = 84275
BSTAR          = .15473837E-3
MEAN_MOTION_DOT = .1112E-4
MEAN_MOTION_DDOT = 0

CCSDS_OMM_VERS = 2.0
CREATION_DATE  = 
ORIGINATOR     = 

OBJECT_NAME    = SL-8 R/B
OBJECT_ID      = 1975-112B
CENTER_NAME    = EARTH
REF_FRAME      = TEME
TIME_SYSTEM    = UTC
MEAN_ELEMENT_THEORY = SGP/SGP4

EPOCH          = 2026-03-19T22:29:12.777216
MEAN_MOTION    = 14.38209521
ECCENTRICITY   = .00144432
INCLINATION    = 74.0637
RA_OF_ASC_NODE = 0.0633
ARG_OF_PERICENTER = 89.0084
MEAN_ANOMALY   = 271.2725

EPHEMERIS_TYPE = 0
CLASSIFICATION_TYPE = U
NORAD_CAT_ID   = 8459
ELEMENT_SET_NO = 999
REV_AT_EPOCH   = 63334
BSTAR          = .77364545E-4
MEAN_MOTION_DOT = .209E-5
MEAN_MOTION_DDOT = 0

CCSDS_OMM_VERS = 2.0
CREATION_DATE  = 
ORIGINATOR     = 

OBJECT_NAME    = SL-3 R/B
OBJECT_ID      = 1977-057B
CENTER_NAME    = EARTH
REF_FRAME      = TEME
TIME_SYSTEM    = UTC
MEAN_ELEMENT_THEORY = SGP/SGP4

EPOCH          = 2026-03-19T22:44:59.088768
MEAN_MOTION    = 15.45774642
ECCENTRICITY   = .00062776
INCLINATION    = 97.5781
RA_OF_ASC_NODE = 251.3235
ARG_OF_PERICENTER = 241.2678
MEAN_ANOMALY   = 118.7940

EPHEMERIS_TYPE = 0
CLASSIFICATION_TYPE = U
NORAD_CAT_ID   = 10114
ELEMENT_SET_NO = 999
REV_AT_EPOCH   = 66991
BSTAR          = .24630902E-3
MEAN_MOTION_DOT = .11839E-3
MEAN_MOTION_DDOT = 0

CCSDS_OMM_VERS = 2.0
CREATION_DATE  = 
ORIGINATOR     = 

OBJECT_NAME    = SEASAT 1
OBJECT_ID      = 1978-064A
CENTER_NAME    = EARTH
REF_FRAME      = TEME
TIME_SYSTEM    = UTC
MEAN_ELEMENT_THEORY = SGP/SGP4

EPOCH          = 2026-03-19T22:35:10.144032
MEAN_MOTION    = 14.46168274
ECCENTRICITY   = .00024975
INCLINATION    = 108.0088
RA_OF_ASC_NODE = 147.0104
ARG_OF_PERICENTER = 281.2016
MEAN_ANOMALY   = 78.8849

EPHEMERIS_TYPE = 0
CLASSIFICATION_TYPE = U
NORAD_CAT_ID   = 10967
ELEMENT_SET_NO = 999
REV_AT_EPOCH   = 50799
BSTAR          = .91567613E-4
MEAN_MOTION_DOT = .19E-5
MEAN_MOTION_DDOT = 0

CCSDS_OMM_VERS = 2.0
CREATION_DATE  = 
ORIGINATOR     = 

OBJECT_NAME    = SL-14 R/B
OBJECT_ID      = 1979-011B
CENTER_NAME    = EARTH
REF_FRAME      = TEME
TIME_SYSTEM    = UTC
MEAN_ELEMENT_THEORY = SGP/SGP4

EPOCH          = 2026-03-19T10:33:11.604096
MEAN_MOTION    = 14.91920048
ECCENTRICITY   = .0016795
INCLINATION    = 82.5203
RA_OF_ASC_NODE = 87.3160
ARG_OF_PERICENTER = 30.0935
MEAN_ANOMALY   = 330.1246

EPHEMERIS_TYPE = 0
CLASSIFICATION_TYPE = U
NORAD_CAT_ID   = 11267
ELEMENT_SET_NO = 999
REV_AT_EPOCH   = 53023
BSTAR          = .52499179E-4
MEAN_MOTION_DOT = .558E-5
MEAN_MOTION_DDOT = 0

CCSDS_OMM_VERS = 2.0
CREATION_DATE  = 
ORIGINATOR     = 

OBJECT_NAME    = SL-8 R/B
OBJECT_ID      = 1979-089B
CENTER_NAME    = EARTH
REF_FRAME      = TEME
TIME_SYSTEM    = UTC
MEAN_ELEMENT_THEORY = SGP/SGP4

EPOCH          = 2026-03-19T09:16:28.653600
MEAN_MOTION    = 14.42356636
ECCENTRICITY   = .00170029
INCLINATION    = 74.0671
RA_OF_ASC_NODE = 73.0917
ARG_OF_PERICENTER = 244.6999
MEAN_ANOMALY   = 115.2396

EPHEMERIS_TYPE = 0
CLASSIFICATION_TYPE = U
NORAD_CAT_ID   = 11574
ELEMENT_SET_NO = 999
REV_AT_EPOCH   = 43750
BSTAR          = .69165481E-4
MEAN_MOTION_DOT = .202E-5
MEAN_MOTION_DDOT = 0

CCSDS_OMM_VERS = 2.0
CREATION_DATE  = 
ORIGINATOR     = 

OBJECT_NAME    = SL-14 R/B
OBJECT_ID      = 1980-005B
CENTER_NAME    = EARTH
REF_FRAME      = TEME
TIME_SYSTEM    = UTC
MEAN_ELEMENT_THEORY = SGP/SGP4

EPOCH          = 2026-03-19T14:14:28.810464
MEAN_MOTION    = 14.90940983
ECCENTRICITY   = .00169208
INCLINATION    = 82.5126
RA_OF_ASC_NODE = 297.8408
ARG_OF_PERICENTER = 127.0684
MEAN_ANOMALY   = 233.2086

EPHEMERIS_TYPE = 0
CLASSIFICATION_TYPE = U
NORAD_CAT_ID   = 11672
ELEMENT_SET_NO = 999
REV_AT_EPOCH   = 47796
BSTAR          = .44787259E-4
MEAN_MOTION_DOT = .469E-5
MEAN_MOTION_DDOT = 0

CCSDS_OMM_VERS = 2.0
CREATION_DATE  = 
ORIGINATOR     = 

OBJECT_NAME    = SL-8 R/B
OBJECT_ID      = 1981-003B
CENTER_NAME    = EARTH
REF_FRAME      = TEME
TIME_SYSTEM    = UTC
MEAN_ELEMENT_THEORY = SGP/SGP4

EPOCH          = 2026-03-19T12:51:56.848896
MEAN_MOTION    = 15.11374765
ECCENTRICITY   = .02614369
INCLINATION    = 82.9362
RA_OF_ASC_NODE = 280.9175
ARG_OF_PERICENTER = 144.3198
MEAN_ANOMALY   = 217.5830

EPHEMERIS_TYPE = 0
CLASSIFICATION_TYPE = U
NORAD_CAT_ID   = 12139
ELEMENT_SET_NO = 999
REV_AT_EPOCH   = 31616
BSTAR          = .39652857E-3
MEAN_MOTION_DOT = .1564E-3
MEAN_MOTION_DDOT = 0

CCSDS_OMM_VERS = 2.0
CREATION_DATE  = 
ORIGINATOR     = 

OBJECT_NAME    = SL-3 R/B
OBJECT_ID      = 1981-046B
CENTER_NAME    = EARTH
REF_FRAME      = TEME
TIME_SYSTEM    = UTC
MEAN_ELEMENT_THEORY = SGP/SGP4

EPOCH          = 2026-03-19T21:45:36.953280
MEAN_MOTION    = 15.42234149
ECCENTRICITY   = .001875
INCLINATION    = 81.2279
RA_OF_ASC_NODE = 277.4718
ARG_OF_PERICENTER = 346.6065
MEAN_ANOMALY   = 13.4677

EPHEMERIS_TYPE = 0
CLASSIFICATION_TYPE = U
NORAD_CAT_ID   = 12465
ELEMENT_SET_NO = 999
REV_AT_EPOCH   = 44000
BSTAR          = .22242663E-3
MEAN_MOTION_DOT = .9645E-4
MEAN_MOTION_DDOT = 0

CCSDS_OMM_VERS = 2.0
CREATION_DATE  = 
ORIGINATOR     = 

OBJECT_NAME    = SL-3 R/B
OBJECT_ID      = 1981-103B
CENTER_NAME    = EARTH
REF_FRAME      = TEME
TIME_SYSTEM    = UTC
MEAN_ELEMENT_THEORY = SGP/SGP4

EPOCH          = 2026-03-19T21:36:43.486848
MEAN_MOTION    = 15.21492890
ECCENTRICITY   = .00124383
INCLINATION    = 81.1604
RA_OF_ASC_NODE = 201.4540
ARG_OF_PERICENTER = 249.8529
MEAN_ANOMALY   = 110.1365

EPHEMERIS_TYPE = 0
CLASSIFICATION_TYPE = U
NORAD_CAT_ID   = 12904
ELEMENT_SET_NO = 999
REV_AT_EPOCH   = 97478
BSTAR          = .20831809E-3
MEAN_MOTION_DOT = .4719E-4
MEAN_MOTION_DDOT = 0

CCSDS_OMM_VERS = 2.0
CREATION_DATE  = 
ORIGINATOR     = 

OBJECT_NAME    = SL-3 R/B
OBJECT_ID      = 1982-013B
CENTER_NAME    = EARTH
REF_FRAME      = TEME
TIME_SYSTEM    = UTC
MEAN_ELEMENT_THEORY = SGP/SGP4

EPOCH          = 2026-03-19T21:42:20.033856
MEAN_MOTION    = 15.22108599
ECCENTRICITY   = .00231932
INCLINATION    = 81.1751
RA_OF_ASC_NODE = 148.7991
ARG_OF_PERICENTER = 143.5568
MEAN_ANOMALY   = 216.7248

EPHEMERIS_TYPE = 0
CLASSIFICATION_TYPE = U
NORAD_CAT_ID   = 13068
ELEMENT_SET_NO = 999
REV_AT_EPOCH   = 40590
BSTAR          = .13863566E-3
MEAN_MOTION_DOT = .3224E-4
MEAN_MOTION_DDOT = 0

CCSDS_OMM_VERS = 2.0
CREATION_DATE  = 
ORIGINATOR     = 

OBJECT_NAME    = SL-3 R/B
OBJECT_ID      = 1982-039B
CENTER_NAME    = EARTH
REF_FRAME      = TEME
TIME_SYSTEM    = UTC
MEAN_ELEMENT_THEORY = SGP/SGP4

EPOCH          = 2026-03-19T20:39:44.259552
MEAN_MOTION    = 15.10135709
ECCENTRICITY   = .00292136
INCLINATION    = 81.1580
RA_OF_ASC_NODE = 204.2346
ARG_OF_PERICENTER = 291.0906
MEAN_ANOMALY   = 68.7196

EPHEMERIS_TYPE = 0
CLASSIFICATION_TYPE = U
NORAD_CAT_ID   = 13154
ELEMENT_SET_NO = 999
REV_AT_EPOCH   = 38317
BSTAR          = .13008434E-3
MEAN_MOTION_DOT = .2165E-4
MEAN_MOTION_DDOT = 0

